BEIDOU-3 M19            
1 44864U 19090A   20013.54641748  .00000037  00000-0  00000+0 0  9999
2 44864  55.0234 141.4269 0013513 256.0999 166.6628  1.86231785   531
